ONEWEB-0709             
1 55172U 23004AJ  25251.51665817  .00000394  00000+0  10770-2 0  9995
2 55172  87.8772  77.2111 0001118 119.8079 240.3160 13.11414124128959
ONEWEB-0710             
1 55173U 23004AK  25251.48058912  .00000017  00000+0  11625-4 0  9998
2 55173  87.9033  61.9166 0001902  93.7201 266.4148 13.17650802130486
ONEWEB-0711             
1 55174U 23004AL  25251.56413471  .00000032  00000+0  53233-4 0  9991
2 55174  87.8776  77.1689 0002487  95.4101 264.7311 13.11418467128928
ONEWEB-0713             
1 55175U 23004AM  25251.50650188  .00000573  00000+0  15809-2 0  9999
2 55175  87.8769  77.1878 0001956  91.4581 268.6771 13.11416780128906
ONEWEB-0715             
1 55176U 23004AN  25251.57771809  .00000519  00000+0  14300-2 0  9996
2 55176  87.8768  77.1740 0001575 114.4841 245.6451 13.11412628128958
ONEWEB-0716             
1 55177U 23004AP  25251.54977736 -.00000068  00000+0 -20775-3 0  9996
2 55177  87.9033  61.9027 0001627  84.7417 275.3900 13.17649315130492
ONEWEB-0717             
1 55178U 23004AQ  25251.45695725  .00000084  00000+0  18218-3 0  9997
2 55178  87.9042  61.8833 0002396 102.2390 257.9010 13.17648525130532
ONEWEB-0719             
1 55179U 23004AR  25251.54301676  .00000014  00000+0  15751-5 0  9991
2 55179  87.9042  61.8491 0001792  83.9827 276.1509 13.17651609130490
ONEWEB-0530             
1 55796U 23029A   25251.57822690  .00000026  00000+0  31432-4 0  9996
2 55796  87.9286 330.6236 0002421  96.9845 263.1564 13.20771624123979
ONEWEB-0534             
1 55797U 23029B   25251.48985315  .00000043  00000+0  74155-4 0  9999
2 55797  87.9280 330.6455 0001859  95.7279 264.4066 13.20771531123966
ONEWEB-0556             
1 55798U 23029C   25251.57192179  .00000070  00000+0  14047-3 0  9991
2 55798  87.9286 330.6244 0002277  79.6124 280.5266 13.20771305123975
ONEWEB-0562             
1 55799U 23029D   25251.48351172 -.00000165  00000+0 -43793-3 0  9999
2 55799  87.9278 330.6295 0002757  89.2819 270.8630 13.20770748123960
ONEWEB-0563             
1 55800U 23029E   25251.47719600  .00000092  00000+0  19462-3 0  9998
2 55800  87.9288 330.6514 0001781  91.1339 268.9998 13.20774373123955
ONEWEB-0564             
1 55801U 23029F   25251.47088561  .00000126  00000+0  27847-3 0  9998
2 55801  87.9278 330.6349 0002309  96.3574 263.7823 13.20769985123960
ONEWEB-0638             
1 55802U 23029G   25251.52890869 -.00000140  00000+0 -41143-3 0  9990
2 55802  87.9097 345.8446 0002094  86.9193 273.2176 13.14503615122391
ONEWEB-0639             
1 55803U 23029H   25251.59997411  .00000664  00000+0  16254-2 0  9992
2 55803  87.9282   0.9758 0000968  94.7900 265.3344 13.19722014121764
ONEWEB-0640             
1 55804U 23029J   25251.53842816  .00000012  00000+0 -21321-5 0  9997
2 55804  87.9089 345.8282 0001819  77.0834 283.0499 13.14503763122413
ONEWEB-0641             
1 55805U 23029K   25251.36777186 -.00000016  00000+0 -72116-4 0  9998
2 55805  87.9289   0.9949 0001574  99.6811 260.4500 13.19727992121742
ONEWEB-0642             
1 55806U 23029L   25251.59049464 -.00000007  00000+0 -50679-4 0  9995
2 55806  87.9279   0.9851 0000926 109.7878 250.3354 13.19724622121764
ONEWEB-0643             
1 55807U 23029M   25251.50828633 -.00000034  00000+0 -12630-3 0  9994
2 55807  87.9095 345.8175 0001285 119.8894 240.2363 13.14504716122382
ONEWEB-0644             
1 55808U 23029N   25251.58576062 -.00000048  00000+0 -15333-3 0  9997
2 55808  87.9282   0.9935 0001300 103.6009 256.5269 13.19724215121760
ONEWEB-0645             
1 55809U 23029P   25251.58181405  .00000093  00000+0  20024-3 0  9992
2 55809  87.9273   0.9806 0001623  90.3227 269.8091 13.19727044121763
ONEWEB-0646             
1 55810U 23029Q   25251.54716769  .00000078  00000+0  16446-3 0  9993
2 55810  87.9274   0.9844 0001598 103.8930 256.2381 13.19256732121741
ONEWEB-0648             
1 55811U 23029R   25251.55268559 -.00000529  00000+0 -14606-2 0  9992
2 55811  87.9067 345.7802 0001217  95.1593 264.9676 13.14504294122391
ONEWEB-0649             
1 55812U 23029S   25251.57470846  .00000096  00000+0  20771-3 0  9997
2 55812  87.9285   0.9711 0001368  93.4243 266.7046 13.19725077121785
ONEWEB-0650             
1 55813U 23029T   25251.34251697  .00000099  00000+0  21609-3 0  9998
2 55813  87.9283   1.0276 0001608 100.7775 259.3539 13.19727020121720
ONEWEB-0652             
1 55814U 23029U   25251.53366962 -.00001278  00000+0 -34804-2 0  9994
2 55814  87.9089 345.7983 0002120  98.1895 261.9475 13.14509501122367
ONEWEB-0653             
1 55815U 23029V   25251.51780876 -.00000196  00000+0 -56312-3 0  9994
2 55815  87.9092 345.7906 0001995  95.1018 265.0339 13.14504374122390
ONEWEB-0654             
1 55816U 23029W   25251.51303940 -.00000050  00000+0 -16806-3 0  9991
2 55816  87.9093 345.7896 0002224  99.6912 260.4469 13.14502124122415
ONEWEB-0656             
1 55817U 23029X   25251.23730295  .00000115  00000+0  25181-3 0  9994
2 55817  87.9289 330.6286 0002406  98.4294 261.7112 13.20773359123935
ONEWEB-0657             
1 55818U 23029Y   25251.56523515  .00000034  00000+0  53458-4 0  9995
2 55818  87.9281   0.9883 0002316 117.1733 242.9636 13.19726835121761
ONEWEB-0658             
1 55819U 23029Z   25251.56049531  .00000091  00000+0  19391-3 0  9997
2 55819  87.9295   0.9263 0001335 103.7026 256.4256 13.19726067121771
ONEWEB-0660             
1 55820U 23029AA  25251.56696979  .00000270  00000+0  69478-3 0  9993
2 55820  87.9097 345.7516 0001672  90.1791 269.9531 13.14504281122409
ONEWEB-0661             
1 55821U 23029AB  25251.52574477 -.00000163  00000+0 -47546-3 0  9993
2 55821  87.9094 345.8317 0001783  88.2508 271.8826 13.14502986122380
ONEWEB-0662             
1 55822U 23029AC  25251.56063053  .00000278  00000+0  71652-3 0  9991
2 55822  87.9089 345.8310 0001591  91.3113 268.8199 13.14503432122434
ONEWEB-0663             
1 55823U 23029AD  25251.59274258 -.00000075  00000+0 -21690-3 0  9990
2 55823  87.9303 330.6160 0001508  90.5131 269.6175 13.20844954123975
ONEWEB-0664             
1 55824U 23029AE  25251.60346987  .00000044  00000+0  75470-4 0  9992
2 55824  87.9288 330.6341 0002100  89.0017 271.1357 13.20771109123975
ONEWEB-0665             
1 55825U 23029AF  25251.52256388 -.00000171  00000+0 -49668-3 0  9991
2 55825  87.9100 345.8075 0001631  94.2017 265.9299 13.14503233122404
ONEWEB-0666             
1 55826U 23029AG  25251.59716068 -.00000084  00000+0 -23774-3 0  9998
2 55826  87.9287 330.6234 0002418 113.6367 246.5020 13.20770719123981
ONEWEB-0667             
1 55827U 23029AH  25251.59084082  .00000048  00000+0  85679-4 0  9994
2 55827  87.9288 330.5523 0001800  93.3544 266.7795 13.20770981123971
ONEWEB-0669             
1 55828U 23029AJ  25251.58609661 -.00000202  00000+0 -52991-3 0  9994
2 55828  87.9293 330.5927 0002593  94.3619 265.7811 13.20771896123974
ONEWEB-0670             
1 55829U 23029AK  25251.50037367  .00000088  00000+0  20299-3 0  9991
2 55829  87.9096 345.8320 0001869  87.4722 272.6621 13.14502281122423
ONEWEB-0671             
1 55830U 23029AL  25251.55574479  .00000037  00000+0  60887-4 0  9990
2 55830  87.9280   0.9823 0001740  93.4467 266.6865 13.19724484121752
ONEWEB-0672             
1 55831U 23029AM  25251.58136994  .00000184  00000+0  41965-3 0  9998
2 55831  87.9285 330.5771 0002190 103.2743 256.8635 13.20774046123972
ONEWEB-0673             
1 55832U 23029AN  25251.53205155  .00000024  00000+0  28890-4 0  9996
2 55832  87.9292   0.9533 0001614 100.9001 259.2314 13.19724736121750
ONEWEB-0674             
1 55833U 23029AP  25251.31641322  .00000155  00000+0  38364-3 0  9994
2 55833  87.9094 345.8517 0002008  86.1401 273.9958 13.14505280122384
ONEWEB-0675             
1 55834U 23029AQ  25251.54784668  .00000104  00000+0  22784-3 0  9994
2 55834  87.9280   0.9947 0001874 109.8724 250.2611 13.19724950121777
ONEWEB-0720             
1 55835U 23029AR  25251.53995938  .00000074  00000+0  15194-3 0  9991
2 55835  87.9280   0.9930 0001420  93.9794 266.1501 13.19725712121699
ONEWEB-0537             
1 56046U 23043A   25251.54985896  .00000074  00000+0  15896-3 0  9994
2 56046  87.9001 284.8975 0002011  99.2824 260.8534 13.16596293121905
ONEWEB-0538             
1 56047U 23043B   25251.54353721  .00000104  00000+0  23786-3 0  9992
2 56047  87.8992 284.9113 0001734 101.4666 258.6660 13.16594216121919
ONEWEB-0546             
1 56048U 23043C   25251.60686769  .00000050  00000+0  98255-4 0  9995
2 56048  87.9000 284.8801 0002479 105.1488 254.9917 13.16594343121919
ONEWEB-0547             
1 56049U 23043D   25251.43174485  .00000023  00000+0  23315-4 0  9999
2 56049  87.9217 300.2005 0001793  96.1855 263.9483 13.21825164121006
ONEWEB-0548             
1 56050U 23043E   25251.55620591  .00000044  00000+0  82647-4 0  9994
2 56050  87.8983 284.9143 0002167  81.4034 278.7342 13.16595730121904
ONEWEB-0549             
1 56051U 23043F   25251.57447324  .00000043  00000+0  73312-4 0  9996
2 56051  87.9220 300.1870 0001677  99.4610 260.6714 13.21826651121023
ONEWEB-0550             
1 56052U 23043G   25251.56183974  .00000090  00000+0  18724-3 0  9991
2 56052  87.9220 300.1836 0002103  92.8277 267.3098 13.21823894121022
ONEWEB-0551             
1 56053U 23043H   25251.59100163 -.00000169  00000+0 -48307-3 0  9993
2 56053  87.9040 315.4232 0001664  97.7099 262.4220 13.15549400119378
ONEWEB-0552             
1 56054U 23043J   25251.55554747  .00000054  00000+0  98453-4 0  9990
2 56054  87.9219 300.1935 0001698  90.4950 269.6378 13.21825668121029
ONEWEB-0553             
1 56055U 23043K   25251.61320398  .00000103  00000+0  23623-3 0  9992
2 56055  87.8989 284.8961 0002299  96.7931 263.3462 13.16594449121924
ONEWEB-0554             
1 56056U 23043L   25251.60053368  .00000000  00000+0 -32790-4 0  9995
2 56056  87.8981 284.9231 0002084  87.6298 272.5071 13.16592851121906
